[{"OBJECT_NAME":"LKW-4","OBJECT_ID":"2018-025A","EPOCH":"2026-03-09T22:35:59.889696","MEAN_MOTION":15.54576681,"ECCENTRICITY":0.00029172,"INCLINATION":97.6271,"RA_OF_ASC_NODE":232.6737,"ARG_OF_PERICENTER":300.1115,"MEAN_ANOMALY":59.9849,"EPHEMERIS_TYPE":0,"CLASSIFICATION_TYPE":"U","NORAD_CAT_ID":43236,"ELEMENT_SET_NO":999,"REV_AT_EPOCH":44457,"BSTAR":0.00064120349,"MEAN_MOTION_DOT":0.00042392,"MEAN_MOTION_DDOT":0},{"OBJECT_NAME":"LEOPARD","OBJECT_ID":"1998-067YD","EPOCH":"2026-03-09T14:18:57.773664","MEAN_MOTION":15.51994489,"ECCENTRICITY":0.0007827,"INCLINATION":51.632,"RA_OF_ASC_NODE":72.287,"ARG_OF_PERICENTER":153.8657,"MEAN_ANOMALY":206.2729,"EPHEMERIS_TYPE":0,"CLASSIFICATION_TYPE":"U","NORAD_CAT_ID":67687,"ELEMENT_SET_NO":999,"REV_AT_EPOCH":469,"BSTAR":0.00066276,"MEAN_MOTION_DOT":0.00040393,"MEAN_MOTION_DDOT":0}]
